row_number,full_name,street_address,city,state,zip_code
1,Rey Berford,20 Barby Hill,Louisville,Kentucky,13694
2,Wynn Marlin,036 Forest Alley,Fort Wayne,Indiana,66369
3,Rog Huitt,893 Mandrake Avenue,Memphis,Tennessee,82797
4,Sharity Fessier,58603 Esker Parkway,Des Moines,Iowa,59994
5,Mord Thorogood,1 American Junction,Pompano Beach,Florida,44568
6,Gav Tooth,03278 Sage Place,Pompano Beach,Florida,62766
7,Howey Cassell,5680 Hayes Street,San Jose,California,48428
8,Iggy Franek,922 Hauk Court,Houston,Texas,71874
9,Ilsa Cutford,8803 Drewry Point,Tacoma,Washington,32926
10,Burk Harback,46 Forest Run Alley,Toledo,Ohio,59001
11,Heall Luxton,3686 Atwood Trail,Springfield,Massachusetts,45504
12,Jere Sunderland,10 Loftsgordon Drive,Los Angeles,California,37531
13,Tanya Breckon,3 Mayfield Pass,Mansfield,Ohio,21436
14,Annadiana Arrington,5 Beilfuss Hill,San Antonio,Texas,20796
15,Cayla Sperry,2755 Golf Center,Washington,District of Columbia,37471
16,Clarisse Dionis,2176 Oakridge Center,Lansing,Michigan,46234
17,Giuditta Mirfin,06798 Westport Avenue,El Paso,Texas,60405
18,Ophelia Garfirth,29 Esch Circle,Reading,Pennsylvania,72080
19,Curr Corry,2986 Heath Plaza,Brooklyn,New York,67954
20,Rae Bellhouse,7 Vermont Park,Shreveport,Louisiana,83374
21,Carolus Probey,64 East Park,Tucson,Arizona,82499
22,Greggory Ales0,23 Anhalt Avenue,Chicago,Illinois,10902
23,Chris Hustler,43631 Doe Crossing Way,Colorado Springs,Colorado,86085
24,Joyan Leat,27435 Granby Road,Saint Petersburg,Florida,69369
25,Fitz Bucher,248 Talisman Lane,Austin,Texas,21296
26,Lionello Davidov,44 Melody Parkway,Montgomery,Alabama,30009
27,Xever Humbell,34 Warrior Trail,San Jose,California,70682
28,Nicolai Couthard,032 Sycamore Hill,Albany,New York,36740
29,Jermayne Jenner,863 Wayridge Drive,Garland,Texas,73472
30,Thaxter Nield,87 Pleasure Street,Baltimore,Maryland,64793
31,Cecil Artingstall,20900 Sullivan Court,Metairie,Louisiana,31459
32,Meg Guilder,6188 Longview Avenue,Dallas,Texas,71038
33,Cecilio Bertram,4 Westport Place,Young America,Minnesota,71059
34,Tessi Minet,2 Mendota Circle,El Paso,Texas,24670
35,Natalya Pyecroft,3 Cascade Terrace,Wilkes Barre,Pennsylvania,64754
36,Gaultiero Rennox,50 Rigney Lane,Knoxville,Tennessee,94878
37,Georgie Curteis,3369 Morning Circle,Seattle,Washington,91308
38,Ignazio Guirau,51772 Sommers Crossing,New Haven,Connecticut,57404
39,Papagena Pardal,526 Gina Lane,Waterloo,Iowa,99374
40,Camila Grayshon,7 Union Lane,Huntsville,Alabama,16374
41,Guglielmo Leavold,64054 Springs Parkway,Peoria,Illinois,35111
42,Thorny Nann,85031 Bultman Avenue,Schenectady,New York,23861
43,Averil Ughelli,97 Sunbrook Parkway,Springfield,Illinois,75300
44,Karlotte Edler,0517 Canary Street,Portland,Oregon,26679
45,Diena Fayne,711 Fremont Lane,Edmond,Oklahoma,56928
46,Malanie Alexsandrev,22 Farwell Alley,Evansville,Indiana,93971
47,Fayth Etchell,61 Pawling Alley,Columbia,South Carolina,57137
48,Lydia Luckie,2743 Heffernan Street,Tuscaloosa,Alabama,73170
49,Saxon Gosling,137 Forest Terrace,Fort Lauderdale,Florida,69963
50,Rosana Frankling,6 Village Green Park,New York City,New York,95005
51,Connor Viant,3 Lakewood Gardens Plaza,Los Angeles,California,13718
52,Jecho Bowcock,2628 Texas Junction,Dallas,Texas,24511
53,Pablo Laweles,551 Hazelcrest Drive,Canton,Ohio,99994
54,Mathew Simmonite,2353 Thierer Road,Columbus,Ohio,40356
55,Pasquale Waggatt,739 Dahle Circle,Winter Haven,Florida,59505
56,Kristi Eberle,376 Sycamore Hill,Hyattsville,Maryland,24525
57,Dale Sansom,89 Derek Center,Fort Collins,Colorado,54850
58,Lek Shinton,6 Kensington Point,Tucson,Arizona,66579
59,Verina Anderton,63821 Mosinee Street,Cincinnati,Ohio,52724
60,Norby Southon,84 Hudson Center,Albuquerque,New Mexico,75854
61,Jordan Rumsby,52115 Mayer Junction,San Francisco,California,66945
62,Hollis Oram,0353 John Wall Alley,San Bernardino,California,78165
63,Juliana Harmeston,0 Valley Edge Alley,Los Angeles,California,49686
64,Alla Seatter,72 Artisan Road,Farmington,Michigan,19602
65,Colly Siward,5695 Stoughton Crossing,Raleigh,North Carolina,24417
66,Marrilee Ebbens,0196 Debs Lane,Louisville,Kentucky,85652
67,Juliana Tarling,07 Lukken Drive,San Bernardino,California,60713
68,Nahum Claworth,8 Hooker Road,Anaheim,California,29856
69,Antonin Schirok,3 Arrowood Lane,Grand Rapids,Michigan,82705
70,Cooper Braker,0 Heffernan Road,Cumming,Georgia,64066
71,Evvie O'Carran,164 Porter Avenue,Roanoke,Virginia,40920
72,Elene Scrivens,5 Coolidge Place,Pittsburgh,Pennsylvania,33623
73,Harlin Bordes,845 Shelley Way,Lubbock,Texas,95908
74,Malvin Blaszczak,8992 Grasskamp Plaza,Corpus Christi,Texas,28837
75,Kris Trasler,15916 Moose Street,Charleston,West Virginia,84053
76,Quillan Westby,64 Mockingbird Street,Brooklyn,New York,74052
77,Mignonne Dugan,90496 Express Junction,Cleveland,Ohio,82162
78,Angele Oldham,034 Lien Hill,Pensacola,Florida,62730
79,Terencio Chesshire,223 Petterle Parkway,Watertown,Massachusetts,98490
80,Sayre Chedgey,7754 Melrose Road,Virginia Beach,Virginia,35819
81,Corney Nana,5 Dorton Point,Allentown,Pennsylvania,59535
82,Georgeanne Pretti,1552 Cottonwood Road,Las Vegas,Nevada,46193
83,Malinde Gerbl,3599 Loeprich Crossing,Great Neck,New York,48065
84,Cammi Maasz,6263 Jana Crossing,Richmond,Virginia,61632
85,Marrissa Folomkin,2130 Chinook Alley,Washington,District of Columbia,62949
86,Falkner Aldwich,79 Spaight Park,Los Angeles,California,19670
87,Malorie Jeannin,7980 Moulton Pass,Alexandria,Louisiana,56457
88,Melba Raikes,859 Springs Circle,Erie,Pennsylvania,74355
89,Rosetta Oller,88 Lillian Place,Charlotte,North Carolina,92671
90,Thatch Cuckson,61188 Glendale Circle,San Antonio,Texas,47390
91,Nolie Bodycomb,01 Nevada Center,Cincinnati,Ohio,14060
92,Albie Morteo,71 Spaight Crossing,Brooklyn,New York,59172
93,Marjorie Bennis,1 Melby Center,Raleigh,North Carolina,10274
94,Marlee Giddy,85897 Maple Wood Place,Kent,Washington,47217
95,Ansell Yearn,180 Cottonwood Plaza,Silver Spring,Maryland,88999
96,Daven Joe,97971 Sachtjen Hill,Irvine,California,41526
97,Albert Paolucci,28698 Morningstar Center,Columbus,Georgia,32100
98,Matthew Bulgen,0 Melody Crossing,Montgomery,Alabama,31921
99,Retha Redhills,540 Graedel Avenue,San Diego,California,12451
100,Munroe Derry,531 Hansons Lane,Billings,Montana,93442
101,Renata Barosch,890 Tennessee Junction,Minneapolis,Minnesota,37719
102,Chandra Leyninye,72048 Fallview Street,Kansas City,Kansas,55757
103,Kelsey Blincowe,8 Sutteridge Point,Greeley,Colorado,37013
104,Kary Lipgens,975 2nd Junction,Kansas City,Missouri,59342
105,Leighton Easterbrook,130 Tennessee Court,Santa Barbara,California,92115
106,Licha MacDonnell,0982 Anniversary Crossing,Pensacola,Florida,99162
107,Alayne Dulen,83 Nobel Center,Washington,District of Columbia,49324
108,Morten Fallow,2945 Caliangt Drive,Glendale,Arizona,36703
109,Jodi McGeown,34 Schmedeman Court,Tampa,Florida,61805
110,Eduino Everingham,116 Acker Circle,Washington,District of Columbia,48775
111,Annabal Puttrell,6658 Dixon Avenue,Buffalo,New York,10043
112,Cherie Tomlins,083 Mitchell Park,New York City,New York,33374
113,Camille Dumbare,6840 Bluestem Court,Harrisburg,Pennsylvania,28698
114,Jacinthe Cammacke,61 Kennedy Parkway,Arlington,Virginia,18120
115,Janaye Dungay,2 Bluestem Park,San Jose,California,44811
116,Diann Stonier,715 Little Fleur Court,Washington,District of Columbia,34449
117,Libbi Marven,651 Talisman Court,Houston,Texas,43940
118,Sarena Kliche,8277 Dixon Junction,Jersey City,New Jersey,12528
119,Olivette Dolan,1 Anderson Parkway,Bloomington,Indiana,91276
120,Barrett Gaughan,46 Hintze Lane,Austin,Texas,64298
121,Kimberly Penquet,52 Mallory Terrace,Louisville,Kentucky,50522
122,Leonora Hackley,6943 Bayside Way,Clearwater,Florida,82390
123,Angelita Balsdon,79344 Troy Junction,Alexandria,Louisiana,51824
124,Emmy Konke,1 Manitowish Alley,Scottsdale,Arizona,52157
125,Orville Presdee,2 Jenna Court,Tampa,Florida,11418
126,Melita Salack,57840 Kinsman Lane,Salinas,California,69130
127,Redford Treven,34 Twin Pines Park,Boise,Idaho,66765
128,Jacinta Parsons,65161 Farragut Junction,New Haven,Connecticut,43671
129,Haskell Blonfield,3001 Steensland Avenue,Los Angeles,California,88776
130,Karon Dollimore,56 Oriole Crossing,Salt Lake City,Utah,78413
131,Wyn Francescotti,74 Grayhawk Point,Madison,Wisconsin,79700
132,Rhonda Loads,7689 Arkansas Terrace,Phoenix,Arizona,32213
133,Sarah Killelay,63 Kings Park,Kansas City,Missouri,32474
134,Wash Order,3 Meadow Valley Center,Houston,Texas,65215
135,Dennie Eidler,5 Spenser Terrace,Lexington,Kentucky,96597
136,Kasey Measor,18 Maple Avenue,Athens,Georgia,77584
137,Charita Form,05 Scoville Place,Terre Haute,Indiana,12043
138,Licha Timberlake,2760 Homewood Alley,Mesquite,Texas,98786
139,Von Matiebe,2 Iowa Park,Atlanta,Georgia,13313
140,Kearney Yuill,9337 Onsgard Place,Nashville,Tennessee,79952
141,Sherwin Rosenblath,9 Eastwood Street,Ocala,Florida,38130
142,Josepha Morillas,052 Rutledge Street,Pensacola,Florida,14535
143,Arnaldo Duxbury,79 Golf Terrace,Oxnard,California,31321
144,Kirby Skillern,97832 Kipling Circle,Kansas City,Missouri,80205
145,Deeann Gillman,705 Heffernan Alley,Dulles,Virginia,74347
146,Waylin Baack,980 Norway Maple Terrace,Denver,Colorado,65101
147,Natty Tiptaft,79 Tennyson Way,Atlanta,Georgia,85181
148,Kimberlee Crecy,8 Butterfield Alley,New York City,New York,55675
149,Ebony Camier,290 Blackbird Court,San Diego,California,77686
150,Shaylyn Witt,32848 Anhalt Pass,Des Moines,Iowa,77114
151,Julia Peplow,862 Dakota Plaza,Knoxville,Tennessee,73194
152,Kristal de Tocqueville,43 Nelson Plaza,Sandy,Utah,61479
153,Shurwood Haxby,67 Anthes Hill,New Haven,Connecticut,94194
154,Francine Baggs,099 1st Court,Fresno,California,60457
155,Lilli Rollings,1 Everett Park,Lake Worth,Florida,61806
156,Kaleena Birdis,63 Darwin Place,Washington,District of Columbia,10871
157,Dulcine Hanbury,49 Tomscot Park,Durham,North Carolina,14697
158,Hinda Kanter,265 Banding Junction,Wilkes Barre,Pennsylvania,87334
159,Travus Noulton,1 Miller Center,Fort Worth,Texas,60543
160,Alonso Touson,2650 Monterey Parkway,Los Angeles,California,21667
161,Archambault Zupone,27166 Walton Alley,Arlington,Virginia,81383
162,Erroll Maccrea,81 Myrtle Park,Oakland,California,50265
163,Roanne Brimming,58817 Towne Alley,Lincoln,Nebraska,35540
164,Lydon Bernakiewicz,8 Cody Court,Glendale,Arizona,34628
165,Evelin O'Downe,358 Service Park,Wichita,Kansas,49060
166,Ingrim Baress,463 Westerfield Park,Montgomery,Alabama,88333
167,Callean Wellsman,66755 Meadow Valley Terrace,Miami,Florida,93433
168,Artemas Rau,7550 Miller Place,Pittsburgh,Pennsylvania,74383
169,Rory Ilyukhov,6787 Summer Ridge Plaza,Fairbanks,Alaska,70923
170,Rawley Peddel,9 Melby Plaza,Farmington,Michigan,57146
171,Aurel Lempel,483 Troy Park,Durham,North Carolina,53575
172,Eleanor Messenger,21947 Leroy Center,Jersey City,New Jersey,21120
173,Herculie Whyler,186 Helena Lane,Oklahoma City,Oklahoma,48605
174,Ginevra Beardon,11591 Steensland Place,Baltimore,Maryland,84504
175,Paulie Rozsa,4 Hanson Terrace,Idaho Falls,Idaho,73199
176,Nomi De La Hay,21708 Mandrake Place,Fresno,California,34312
177,Gwendolyn De la croix,24 Claremont Road,Miami,Florida,29367
178,Pepito Sherrum,45 Maryland Point,Boston,Massachusetts,95998
179,Nichole Pesek,58 Vernon Hill,Washington,District of Columbia,72321
180,Nial Waker,5254 Heath Place,Atlanta,Georgia,48862
181,Symon Wattisham,6856 Columbus Hill,Washington,District of Columbia,71565
182,Benyamin Dilks,23 Grover Avenue,Hartford,Connecticut,21825
183,Cammi Marzele,929 Rowland Way,Cincinnati,Ohio,34293
184,Edgardo Danielski,212 Marquette Street,Lubbock,Texas,19236
185,Lynnette Toplis,44 Harbort Park,Alexandria,Virginia,84755
186,Libbie Andrieux,522 Fallview Park,New York City,New York,25379
187,Timmy Stedson,250 Dwight Road,Memphis,Tennessee,69542
188,Olivette Boolsen,6 Lighthouse Bay Crossing,Richmond,California,67653
189,Homer Beernaert,32216 Spaight Park,Pittsburgh,Pennsylvania,81213
190,Deborah Besse,2 Eliot Park,Lima,Ohio,67468
191,Elie Tinkham,52 Sommers Junction,Omaha,Nebraska,71645
192,Humberto Bonnick,04618 Huxley Pass,Fort Wayne,Indiana,80209
193,Dominica Eales,1 Ridge Oak Point,Arlington,Texas,55477
194,Gretchen O'Leagham,1252 Melrose Crossing,Memphis,Tennessee,65741
195,Ryann Showen,4134 Melby Place,Columbus,Georgia,83199
196,Tami Scipsey,6 Cody Crossing,Oklahoma City,Oklahoma,61943
197,Tabby Ilieve,3 Mosinee Avenue,Springfield,Illinois,92075
198,Cariotta Callington,400 Longview Circle,Spokane,Washington,85431
199,Isidore Corderoy,706 Hintze Lane,Columbus,Ohio,48316
200,Garfield Ough,8399 Hazelcrest Crossing,New Haven,Connecticut,87051
201,Deloris Baud,1928 New Castle Hill,Hicksville,New York,38920
202,Hendrick Overil,1827 Green Place,Vancouver,Washington,26082
203,Susi McAdam,02709 Sugar Junction,Pueblo,Colorado,18122
204,Tessa Broseman,0 Bultman Place,Charlotte,North Carolina,65857
205,Romain Iapico,456 Kropf Hill,Oklahoma City,Oklahoma,72943
206,Hamil Linnemann,12279 Armistice Point,Cambridge,Massachusetts,20472
207,Nathanial Deeson,1 Dunning Center,Durham,North Carolina,66508
208,Heather Hinrich,890 Stephen Way,Brooklyn,New York,42353
209,Myrle Stoeck,4 Dottie Parkway,Columbia,South Carolina,44118
210,Matty Tonepohl,3 Westridge Court,Erie,Pennsylvania,20087
211,Elmer Antonellini,1908 Northport Alley,Appleton,Wisconsin,27137
212,Katheryn Koba,448 Truax Junction,South Bend,Indiana,79534
213,Amos Jess,40137 Old Gate Trail,Santa Cruz,California,11278
214,Afton Raddon,678 Magdeline Parkway,Saint Augustine,Florida,17511
215,Huntley Kedie,60 Calypso Crossing,Bradenton,Florida,17046
216,Uriah Dikels,5 Colorado Junction,New Orleans,Louisiana,33809
217,Ilene Grinston,4683 Twin Pines Terrace,Tucson,Arizona,32237
218,Maggy Marusic,31 Everett Park,Milwaukee,Wisconsin,85175
219,Almeda Mortel,85354 Warrior Alley,San Bernardino,California,72093
220,Goddart Marcone,4671 Cherokee Place,Milwaukee,Wisconsin,59495
221,Terri MacCaughan,503 Hooker Parkway,Tucson,Arizona,81860
222,Barth De Gregorio,38875 Waxwing Terrace,Atlanta,Georgia,87136
223,Al Girodier,2931 6th Pass,Memphis,Tennessee,33896
224,Garwood Salery,5727 Mockingbird Crossing,Phoenix,Arizona,23993
225,Pieter Nadin,695 Melrose Avenue,Saint Paul,Minnesota,81060
226,Reginauld Andrejs,413 Tomscot Way,Springfield,Massachusetts,75538
227,Chalmers Seint,7689 Blackbird Circle,Atlanta,Georgia,95570
228,Brana Sandifer,4526 Florence Terrace,Dallas,Texas,66896
229,Gratia Crosby,736 Golf Course Park,Baltimore,Maryland,87753
230,Briant Weerdenburg,33 Morning Center,Phoenix,Arizona,66645
231,Tomas Rawll,1 Sachs Terrace,Oakland,California,23471
232,Ryan Toffoletto,83669 Northport Circle,Tucson,Arizona,35949
233,Cully Slowly,606 Magdeline Hill,Lancaster,Pennsylvania,24058
234,Dale Trustram,0791 Troy Center,Indianapolis,Indiana,50874
235,Darrin Hlavecek,720 Kensington Court,Lansing,Michigan,10090
236,Pollyanna Thurnham,92 David Terrace,Buffalo,New York,82088
237,Kally Molnar,98 Schlimgen Crossing,Sacramento,California,75942
238,Sherline Shaddick,620 Dennis Junction,New York City,New York,35052
239,Reinhold Zwicker,7823 Homewood Hill,Lincoln,Nebraska,20448
240,Sibyl Kineton,53 Kipling Park,Saint Louis,Missouri,80712
241,Vonni Mayer,6 Annamark Place,Fort Lauderdale,Florida,60579
242,Noelani Peppard,06 Burrows Alley,Cheyenne,Wyoming,15449
243,Letitia Lillicrap,65236 Starling Alley,Lehigh Acres,Florida,52864
244,Hermina Van,1 Sauthoff Circle,Springfield,Massachusetts,99758
245,Dyan McClean,2 Pond Street,Worcester,Massachusetts,80359
246,Sibby Chattelaine,540 Thackeray Hill,Indianapolis,Indiana,82297
247,Darice Dallow,595 Hollow Ridge Plaza,Terre Haute,Indiana,20067
248,Susy Caslin,3 Jenna Trail,Kansas City,Missouri,12451
249,Vevay Rudham,569 Lakewood Crossing,Los Angeles,California,29619
250,Merola Towsie,4 Hollow Ridge Crossing,Albuquerque,New Mexico,58419
251,Agnese Heliar,1459 Prairie Rose Junction,Roanoke,Virginia,53715
252,Sigfried Nowick,548 Loftsgordon Court,Tampa,Florida,71471
253,Trever Yacobsohn,7630 Elmside Place,Alpharetta,Georgia,82030
254,Karena Sowle,02 Miller Pass,Lima,Ohio,30655
255,Jae Vandenhoff,619 Division Road,Philadelphia,Pennsylvania,60701
256,Mike Attarge,74 Roxbury Crossing,New Bedford,Massachusetts,16527
257,Gnni Fussie,204 Hudson Terrace,Baltimore,Maryland,22925
258,Lionel Bodle,4224 Briar Crest Point,Whittier,California,46528
259,Berget Drinkwater,7459 Armistice Avenue,Fresno,California,45978
260,Nicol Tyhurst,7187 Fieldstone Terrace,Memphis,Tennessee,58648
261,Freddie Ferrar,5947 Utah Parkway,Jamaica,New York,34693
262,Lilyan Dallaghan,1 Huxley Avenue,Juneau,Alaska,17427
263,Willyt Tranfield,1631 Amoth Junction,Lexington,Kentucky,40435
264,Tiebout Baker,2 Kings Plaza,Wichita,Kansas,42098
265,Zondra Matis,36857 Sheridan Circle,Dallas,Texas,11598
266,Marje Limpricht,06580 2nd Court,Richmond,Virginia,63369
267,Micheal Bampton,42 Bartillon Road,Cleveland,Ohio,67463
268,Vance Boldecke,63430 Texas Crossing,Bronx,New York,97835
269,Jonah Swaffer,492 Mallory Hill,Columbus,Ohio,60300
270,Valene Island,7 Arrowood Pass,Denver,Colorado,37268
271,Syd Carrane,579 Talmadge Junction,Atlanta,Georgia,60692
272,Malissa Meace,063 Fair Oaks Parkway,Bradenton,Florida,13958
273,Shelbi Sammonds,09 Stuart Terrace,Wichita Falls,Texas,61200
274,Quinton Sparry,69 Scott Plaza,Springfield,Illinois,94434
275,Stephan Slowly,2 Lukken Circle,Madison,Wisconsin,78448
276,Lyman Ivanisov,5707 Monterey Point,Naples,Florida,18695
277,Jenilee Ruckert,02941 Ludington Crossing,Boise,Idaho,72883
278,Guglielma Beckitt,48060 Holy Cross Alley,Port Saint Lucie,Florida,36103
279,Ree Harry,4545 Elka Place,Staten Island,New York,19783
280,Laney Killelay,38227 Bayside Pass,Aurora,Colorado,67151
281,Stephannie Prestwich,6 Vidon Parkway,Lexington,Kentucky,59405
282,Issie Tupper,6 Golf View Pass,Irvine,California,72464
283,Peria Peer,02394 Maple Road,Dayton,Ohio,97978
284,Stephine Stratz,485 Shasta Road,Conroe,Texas,36304
285,Gracie Burchill,23 Kedzie Alley,Albuquerque,New Mexico,49728
286,Olimpia Bellelli,0910 Schurz Terrace,New Haven,Connecticut,79235
287,Natal Demangeot,97 Onsgard Crossing,Hialeah,Florida,47169
288,Forrest Bergeon,01 Ludington Lane,Orlando,Florida,16264
289,Asia Abramsky,65 Summerview Lane,Harrisburg,Pennsylvania,20060
290,Euphemia Eagle,86074 Westend Crossing,Lexington,Kentucky,60405
291,Dorella Sansome,23 Sloan Pass,Miami,Florida,46324
292,Giuseppe Muirden,4 Columbus Trail,Marietta,Georgia,12778
293,Preston Planke,941 Duke Avenue,New York City,New York,65692
294,Kellen Cavell,4 Carberry Avenue,Washington,District of Columbia,50991
295,Alisun Okeshott,6 Oneill Place,Gulfport,Mississippi,89524
296,Donia Webborn,7804 Veith Way,Houston,Texas,67461
297,Susie Baison,15256 Clemons Crossing,Norfolk,Virginia,67186
298,Orv Duffitt,632 Sunbrook Court,San Jose,California,96314
299,Marvin Coils,3615 Village Parkway,Las Vegas,Nevada,16531
300,Omero Binder,733 Fuller Court,Cleveland,Ohio,31897
301,Jo ann Kondratowicz,8214 Everett Way,El Paso,Texas,91143
302,Eric Forbes,3756 Walton Road,Morgantown,West Virginia,48518
303,Oralie Wratten,3568 Alpine Road,Fargo,North Dakota,77086
304,Winston Hamfleet,94 Novick Crossing,New Orleans,Louisiana,33052
305,Ashlie Seldon,370 Kings Road,Berkeley,California,91935
306,Abba Janicki,55 Starling Road,Tuscaloosa,Alabama,76089
307,Serge Lawtie,1020 Muir Center,Tacoma,Washington,22834
308,Adan Kendal,086 Melvin Court,Winston Salem,North Carolina,13963
309,Sherrie Gentreau,6845 Fairfield Point,West Hartford,Connecticut,88119
310,Bellina Hull,6 Westend Park,Chicago,Illinois,84307
311,Angelico Sherrin,022 Dexter Circle,Salt Lake City,Utah,34107
312,Ariel Cashell,7 Pennsylvania Park,North Port,Florida,65738
313,Dukey Brauns,924 Amoth Park,Houston,Texas,20106
314,Bryna Foulkes,97019 Union Court,Fullerton,California,78041
315,Suzy Porrett,544 Drewry Avenue,Asheville,North Carolina,33578
316,Cazzie Merrywether,887 Debs Drive,San Rafael,California,15868
317,Weider Gary,3356 Sugar Parkway,Augusta,Georgia,99998
318,Keeley Congdon,83703 Nancy Hill,Saint Petersburg,Florida,84483
319,Zea Zorn,887 Dunning Alley,Detroit,Michigan,17811
320,Dosi Helks,0 Nova Park,Sacramento,California,52545
321,Peggie Larrett,977 Calypso Junction,Springfield,Massachusetts,35615
322,Rodie Moulds,5852 Scoville Point,Fort Lauderdale,Florida,50477
323,Prisca Garz,9179 Hauk Way,Philadelphia,Pennsylvania,97992
324,Ode Anselm,0930 Union Terrace,Cincinnati,Ohio,95005
325,Wyndham Gurr,05 Lakewood Street,Madison,Wisconsin,22084
326,Franky Daglish,4911 Knutson Avenue,Louisville,Kentucky,42839
327,Orlan Bolles,060 Carioca Trail,Henderson,Nevada,50191
328,Meade Snartt,1 Lindbergh Point,Tulsa,Oklahoma,80289
329,Orelie Magor,3 Hintze Terrace,Chicago,Illinois,40698
330,Caterina McIlmorie,86196 Lillian Terrace,Memphis,Tennessee,68744
331,Gavrielle Luxmoore,5 Center Circle,Seattle,Washington,71097
332,Ivy Bucklee,65691 Mesta Street,Washington,District of Columbia,67784
333,Sayers Lanphere,6 Jana Point,Rockford,Illinois,19808
334,Nicola Farish,8 Southridge Terrace,Macon,Georgia,27945
335,Cayla Gouldeby,93 Bartillon Center,Austin,Texas,10218
336,Chevalier Parkisson,86221 Pleasure Lane,Oklahoma City,Oklahoma,43315
337,Cory O'Dowling,92 Upham Way,Miami,Florida,23494
338,Ole Seeviour,596 Washington Center,Lexington,Kentucky,55489
339,Eadith Strut,58700 Acker Court,Washington,District of Columbia,81907
340,Roddie Gniewosz,9 Namekagon Point,Dearborn,Michigan,82319
341,Yank Furlow,16 Pierstorff Terrace,Denver,Colorado,19243
342,Ephrem Buzza,46339 Ludington Park,Palo Alto,California,14701
343,Britni Tyrone,064 Dovetail Drive,Lawrenceville,Georgia,66020
344,Deeanne Cheasman,4057 Commercial Street,Tampa,Florida,17650
345,Laurie Brickdale,58 Longview Park,Albuquerque,New Mexico,76920
346,Jessalin Weathers,7 Clyde Gallagher Way,Riverside,California,24281
347,Scotty Santer,099 Dryden Court,San Francisco,California,56401
348,Riva Denkel,3586 Jana Alley,Lakeland,Florida,73716
349,Ferne Toulson,1372 Golden Leaf Park,Pasadena,California,54287
350,Harmon Orbell,69830 Fallview Plaza,North Las Vegas,Nevada,12248
351,Elene Delacour,68 Grover Pass,San Francisco,California,24523
352,Binnie Blagbrough,35 Fieldstone Alley,Little Rock,Arkansas,43377
353,Franzen Tomasoni,1 Kedzie Center,Hagerstown,Maryland,72053
354,Papagena Helian,57254 Hollow Ridge Street,Topeka,Kansas,62257
355,Tiphani Hacard,1 Kensington Place,Atlanta,Georgia,63557
356,Stuart Gittings,82 Shasta Drive,Houston,Texas,62193
357,Gib Edge,80 Mayfield Place,Philadelphia,Pennsylvania,40037
358,Poppy Ions,6114 Carey Center,Dayton,Ohio,93067
359,Petr Hillin,12 Troy Crossing,Grand Forks,North Dakota,35950
360,Essa Walkey,31794 Jenifer Plaza,Peoria,Illinois,28310
361,Fonz Galliard,678 6th Place,Saint Paul,Minnesota,45533
362,Merrie Larvin,626 Truax Road,Hartford,Connecticut,39942
363,Flint Limon,97594 Sutteridge Crossing,White Plains,New York,80525
364,Irene Readmire,31176 Schmedeman Lane,Philadelphia,Pennsylvania,44549
365,Erv Cattermole,83702 Golf View Hill,Houston,Texas,77628
366,Gisella Lowcock,433 Dryden Way,Inglewood,California,92296
367,Lennie Henningham,4100 Mendota Crossing,Mesa,Arizona,99261
368,Boony Swanson,21083 Fieldstone Way,Houston,Texas,22262
369,Maison Scothorn,0260 Crest Line Circle,Montpelier,Vermont,65299
370,Catie Farncombe,5 Buhler Park,Miami,Florida,29888
371,Durante Littlewood,3 Montana Center,Port Charlotte,Florida,52941
372,Harp Tomanek,9724 Summit Center,Washington,District of Columbia,89296
373,Esme Jobling,5808 Petterle Way,Marietta,Georgia,20810
374,Seamus Burnham,50 Maryland Way,Inglewood,California,46906
375,Alexandros Levi,066 Summer Ridge Circle,Birmingham,Alabama,70806
376,Hanson Mapowder,7 Anhalt Crossing,Honolulu,Hawaii,88536
377,Tymon Torns,84633 Arkansas Center,Maple Plain,Minnesota,65008
378,Hendrik Deroche,2 Spaight Parkway,Alexandria,Virginia,27645
379,Zebulen Wellan,674 Summit Terrace,Shawnee Mission,Kansas,49265
380,Thomasin Corrin,9612 Loftsgordon Point,Milwaukee,Wisconsin,45059
381,Kora Fleckno,57550 Nelson Road,Columbia,South Carolina,56086
382,Devy Melladew,70 Hansons Way,Omaha,Nebraska,84811
383,Ailbert Klimczak,235 Hallows Street,Toledo,Ohio,42178
384,Reese Turbard,880 Upham Court,Atlanta,Georgia,20557
385,Dorene Grey,41 Sloan Junction,Fort Smith,Arkansas,54054
386,Maxim Waldren,574 Merry Lane,Gainesville,Florida,67852
387,Shep Schumacher,7 Sage Way,El Paso,Texas,24954
388,Timmie Yankeev,5524 Carberry Parkway,Philadelphia,Pennsylvania,17646
389,Chandler Steeden,9 Burrows Drive,Phoenix,Arizona,15197
390,Scarlett Barringer,2011 Coolidge Trail,Biloxi,Mississippi,51549
391,Kathlin Brandoni,839 Transport Plaza,Mesa,Arizona,35540
392,Wolfy Leman,4858 Valley Edge Circle,Shreveport,Louisiana,68402
393,Shannon Kelland,608 Kings Center,Dallas,Texas,64554
394,Monica Balnaves,98043 Summer Ridge Parkway,Houston,Texas,60901
395,Mallissa Tomeo,2363 Barnett Alley,Lake Worth,Florida,62766
396,Ekaterina Clamo,73 Mariners Cove Avenue,Fort Pierce,Florida,60456
397,Augustine Planke,845 Harper Way,Washington,District of Columbia,64563
398,Kiel Kringe,63 Fieldstone Center,Baton Rouge,Louisiana,76215
399,Way Dumbreck,0208 Linden Place,Saint Augustine,Florida,65800
400,Ardene Jelfs,2 2nd Pass,Los Angeles,California,25478
401,Garald Strauss,67160 Bunker Hill Plaza,Berkeley,California,18405
402,Solly Maypole,6 South Junction,El Paso,Texas,22454
403,Leese Camber,6 Banding Alley,Corpus Christi,Texas,57740
404,Kylila Files,2796 Basil Trail,Saint Paul,Minnesota,52378
405,Jonie Burnsides,43092 Surrey Place,Saint Cloud,Minnesota,85368
406,Adolf MacCauley,2056 Fulton Way,Southfield,Michigan,12639
407,Nerte Maffucci,52821 Myrtle Street,Flint,Michigan,77682
408,Daria Cromb,8627 Bultman Hill,Bellevue,Washington,99348
409,Nolie Shakesby,24924 Daystar Place,Long Beach,California,85453
410,Price Fourcade,7 Monterey Way,Augusta,Georgia,82196
411,Ardelia Ellerbeck,26043 Old Shore Point,New York City,New York,87932
412,Saudra Caurah,942 Pennsylvania Alley,Miami,Florida,28379
413,Rosamund Flooks,2 Moose Junction,South Bend,Indiana,68656
414,Werner Hurcombe,27459 Red Cloud Park,Stamford,Connecticut,76735
415,Heather Oakton,8 Sycamore Plaza,New Hyde Park,New York,47972
416,Jarrod Letherbury,131 Summerview Plaza,Hialeah,Florida,18891
417,Holly-anne Mathew,8 Scott Pass,Gastonia,North Carolina,72500
418,Maud Cockton,766 Reindahl Center,Boston,Massachusetts,22372
419,Hattie Chidgey,199 Oxford Crossing,Greenville,South Carolina,26058
420,Aleta Dwerryhouse,41 Almo Center,Wilmington,Delaware,69802
421,Odelinda Smidmoor,25 Lakeland Park,Indianapolis,Indiana,71906
422,Eddy Grimsditch,6 Clarendon Junction,Seminole,Florida,92532
423,Lurlene Absolem,2 Rigney Avenue,Stamford,Connecticut,56273
424,Demetris Chipping,79893 Katie Road,Columbus,Ohio,71715
425,Dougie Rowney,35 Waywood Junction,Indianapolis,Indiana,71578
426,Carey Croker,71 Maywood Crossing,Houston,Texas,73665
427,Heddi Emilien,550 Waywood Parkway,Seattle,Washington,92354
428,Shelia Flemming,4 Lyons Place,Melbourne,Florida,79565
429,Tedra Blandamere,050 Mallory Hill,Evansville,Indiana,78120
430,Dion Niland,391 Northridge Circle,Amarillo,Texas,63970
431,Wheeler MacEllen,2 American Avenue,Norman,Oklahoma,95522
432,Andie Cudmore,22 Sutherland Point,Saint Augustine,Florida,13619
433,Roana Royal,780 Northview Terrace,Austin,Texas,12643
434,Tamas Langelaan,62205 Warrior Circle,Tampa,Florida,38221
435,Adler Kos,652 Leroy Pass,New Orleans,Louisiana,19245
436,Amalie McKiernan,52 Tomscot Plaza,Norfolk,Virginia,72707
437,Chickie Tosdevin,1 Blaine Center,Phoenix,Arizona,65931
438,Linette Meneer,1253 Claremont Plaza,Shawnee Mission,Kansas,36862
439,Goldy Postill,6 Clyde Gallagher Way,Albuquerque,New Mexico,24840
440,Hunfredo Dumberrill,80088 La Follette Trail,Boulder,Colorado,12622
441,Andreas Ebenezer,1004 Bartillon Plaza,Oklahoma City,Oklahoma,44974
442,Myra Brideaux,488 Longview Place,Paterson,New Jersey,38263
443,Belita Bourgeois,10007 Golden Leaf Court,Boynton Beach,Florida,86299
444,Sarita Winsley,6 Tony Place,Charlotte,North Carolina,11418
445,Sergeant Willmont,0115 Westend Center,Knoxville,Tennessee,40082
446,Jakie Middell,61176 Gulseth Hill,Anniston,Alabama,21197
447,Felecia Cleare,8 Stoughton Terrace,Houston,Texas,63072
448,Dalenna Challiner,296 Lakewood Plaza,Philadelphia,Pennsylvania,55874
449,Elene Piff,320 Arizona Junction,Houston,Texas,70479
450,Ingra Frift,6688 Declaration Street,Humble,Texas,10466
451,Sean Pretty,39 Ridgeview Circle,Flint,Michigan,54167
452,Querida Revitt,18 Mallory Point,Oxnard,California,96319
453,Corabelle Ivers,450 Prentice Place,New York City,New York,94550
454,Itch Scouse,07007 Oak Valley Avenue,Atlanta,Georgia,85385
455,Humphrey Rosenthal,2 Dixon Way,Chicago,Illinois,28697
456,Ebony Voules,42 Ryan Place,Madison,Wisconsin,59116
457,Rosita Harston,87825 Farragut Place,Tuscaloosa,Alabama,94404
458,Karlotta Ivachyov,6 Green Ridge Street,Lakewood,Washington,38204
459,Kenneth Raittie,53163 Dennis Hill,Charlotte,North Carolina,11460
460,Editha Boate,31586 Columbus Way,Spartanburg,South Carolina,97097
461,Travers Sennett,75 Center Junction,Las Vegas,Nevada,44446
462,Aleece Earingey,54321 Lawn Court,Port Saint Lucie,Florida,81502
463,Concordia Vanderson,0 Nelson Junction,Evansville,Indiana,45943
464,Vitia Drabble,26 Logan Court,Houston,Texas,65639
465,Valentin Lesser,1221 Helena Drive,Charlotte,North Carolina,90740
466,Shaylyn Grindrod,04832 Stone Corner Plaza,Detroit,Michigan,25854
467,Phillipp Wingatt,14 Marquette Terrace,Fresno,California,68099
468,Dell Pethybridge,601 Express Point,Temple,Texas,84159
469,Candra Rosewarne,6456 John Wall Drive,Bakersfield,California,18304
470,Brock McDirmid,693 Kings Park,Lubbock,Texas,54640
471,Davina Sugge,46 Sutteridge Park,Des Moines,Iowa,78157
472,Shelbi Vreiberg,4 American Circle,Baltimore,Maryland,29428
473,Christalle Barts,7 Mallory Trail,Riverside,California,90960
474,Evyn Totaro,27 Kinsman Pass,Port Saint Lucie,Florida,64806
475,Juan Kielty,54786 Lunder Pass,Watertown,Massachusetts,97257
476,Aharon Skupinski,0 Johnson Way,Memphis,Tennessee,16695
477,Julie Flye,6 Nobel Trail,Tulsa,Oklahoma,89413
478,Port Dunnaway,75 Grim Alley,Gastonia,North Carolina,19910
479,Aggi Scorthorne,782 Golf Center,Shawnee Mission,Kansas,59876
480,Enrica Yeates,06205 Columbus Parkway,Jackson,Mississippi,36292
481,Jaynell Fligg,52986 Donald Place,Houston,Texas,51056
482,Anya Chiverstone,06101 Brentwood Place,Chicago,Illinois,59050
483,Jenna Brockhouse,45096 Hoffman Avenue,Jersey City,New Jersey,75331
484,Gilberto St Pierre,5488 Browning Avenue,Atlanta,Georgia,67462
485,Dulciana Reaman,05 Grasskamp Drive,Louisville,Kentucky,83115
486,Ardelia Donohoe,4 Namekagon Junction,Louisville,Kentucky,31141
487,Karlotta Haeslier,6477 Randy Way,Seattle,Washington,38389
488,Mallissa Limpertz,098 Kings Avenue,Lima,Ohio,25964
489,Dougie Greenly,9916 Daystar Way,Lynn,Massachusetts,85864
490,Nickola Pleasants,0360 Division Terrace,Las Vegas,Nevada,53032
491,Micah Shoebrook,447 Pawling Avenue,Corpus Christi,Texas,23400
492,Augusta Meese,6809 North Plaza,Nashville,Tennessee,44207
493,Avrom Tregoning,07118 Melby Lane,South Bend,Indiana,76939
494,Angelo Costar,48238 Gina Park,Mobile,Alabama,60170
495,Frasquito Janzen,542 Starling Terrace,Wilmington,North Carolina,28021
496,Crissie Beat,333 Grover Terrace,Akron,Ohio,90353
497,Ashley Melmeth,54110 Fair Oaks Pass,Houston,Texas,17426
498,Roselle Wigelsworth,97251 Macpherson Center,Amarillo,Texas,70424
499,Davis Quesne,36234 Russell Junction,Indianapolis,Indiana,66399
500,Russell Rhoades,39575 Tony Plaza,Henderson,Nevada,27693
501,Krisha McAllan,86602 Rieder Lane,Pasadena,California,80634
502,Burl Linfitt,87 Ohio Trail,Louisville,Kentucky,68041
503,Frants Wanden,3905 Hazelcrest Avenue,Topeka,Kansas,64679
504,Elwin Ahren,9 Mccormick Terrace,Seattle,Washington,23044
505,Shaine Feild,16 Spaight Avenue,Salt Lake City,Utah,47289
506,Dulcine Hassall,1055 Haas Plaza,Oklahoma City,Oklahoma,97108
507,Eden Walsom,1 Brickson Park Park,Tucson,Arizona,78816
508,Yancy Carrington,36759 Londonderry Junction,Sacramento,California,39021
509,Alexei Spurrett,9933 Delaware Crossing,Lubbock,Texas,46271
510,Stacy Sparkes,5517 West Road,Seattle,Washington,13425
511,Dexter Salamon,6110 Northfield Court,Cleveland,Ohio,54034
512,Bernarr Marshallsay,5396 Sloan Road,Waco,Texas,76140
513,Nefen Haine,0088 Merrick Avenue,Los Angeles,California,43267
514,Ginny Haitlie,884 Katie Court,Murfreesboro,Tennessee,94163
515,Ashton Turn,3057 Wayridge Plaza,Nashville,Tennessee,22335
516,Julianna Keach,077 Amoth Lane,Indianapolis,Indiana,83562
517,Bryce Virgo,37 Canary Hill,Syracuse,New York,69968
518,Valry Terlinden,78 Miller Plaza,Phoenix,Arizona,69299
519,Ki Thackray,13956 Blaine Hill,Rochester,New York,61208
520,Gay Torregiani,7432 Butternut Park,San Diego,California,17610
521,Alaric Alsobrook,16833 Donald Plaza,Dallas,Texas,28787
522,Laural Gatehouse,1297 Bobwhite Place,Houston,Texas,19137
523,Oralie Blazynski,8 Sherman Terrace,Wichita,Kansas,14233
524,Annamarie Alejandri,74521 Summit Park,New York City,New York,59119
525,Gwenneth Palmar,5 Westerfield Trail,Kansas City,Missouri,91495
526,Ingra Eastam,9473 Sundown Park,Sacramento,California,51013
527,Jaimie Vynall,4410 Sunfield Junction,New Haven,Connecticut,41858
528,Ulrich Edgerley,3 Maple Wood Street,Wilmington,North Carolina,18052
529,Tammara Stennings,9545 Carey Court,Brooklyn,New York,97667
530,Thedric Fincke,4284 Arkansas Road,Pueblo,Colorado,86186
531,Carita Vockins,3213 Meadow Valley Point,Knoxville,Tennessee,84780
532,Suellen Polkinghorne,0719 Elmside Court,Tampa,Florida,75938
533,Janice MacCaughey,2 Golf Trail,Saint Louis,Missouri,87905
534,Roby Clamo,15876 Nobel Hill,Rochester,New York,79963
535,Corrianne Lynock,71 Union Park,Charlotte,North Carolina,28967
536,Hayden Bakster,8 Hansons Avenue,Charleston,West Virginia,35774
537,Rockey Cattini,7636 Briar Crest Circle,Hartford,Connecticut,47591
538,Aubine Littrick,053 Loomis Court,San Diego,California,58036
539,Mannie Lumbly,075 Amoth Trail,Palatine,Illinois,14016
540,Olly Longstaff,6 Pennsylvania Junction,Norwalk,Connecticut,89984
541,Raul Fortey,7521 Glacier Hill Trail,Madison,Wisconsin,60052
542,Pegeen Gilbey,239 Butternut Drive,Canton,Ohio,82406
543,Shurlocke Plewright,60 Leroy Hill,Sacramento,California,67973
544,Candace LLelweln,743 Carioca Junction,Philadelphia,Pennsylvania,51360
545,Lucy Ridde,9 Sutherland Crossing,Maple Plain,Minnesota,66324
546,Renata Peskett,971 Redwing Parkway,Detroit,Michigan,71255
547,Giraldo Castagno,72 Bonner Trail,Shreveport,Louisiana,90246
548,Jenifer Le Barr,39 Mcguire Trail,Anaheim,California,20907
549,Andie Snelling,0 David Street,Cincinnati,Ohio,26288
550,Natty Spiller,8456 Everett Court,Midland,Texas,92544
551,Philly Kopacek,978 Bartillon Court,Young America,Minnesota,69339
552,Ernestus Beardsall,18584 Sunnyside Alley,Birmingham,Alabama,29543
553,Dolly Birtle,94099 Kinsman Lane,Miami,Florida,42904
554,Aristotle Lambden,605 Annamark Road,Columbus,Georgia,89976
555,Zelig Rosita,9149 7th Parkway,Santa Rosa,California,45712
556,Hewe Matusevich,53517 Killdeer Center,Humble,Texas,44903
557,Ginelle Crielly,9701 Hoffman Parkway,Cleveland,Ohio,81652
558,Far Nutman,4 Michigan Park,Bridgeport,Connecticut,61379
559,Evangelina Briamo,7277 Northfield Avenue,Philadelphia,Pennsylvania,15768
560,Aldous Ellse,912 Golden Leaf Way,Tucson,Arizona,47152
561,Darby Hartridge,4 Sloan Lane,Henderson,Nevada,17081
562,Mag Scone,46434 Almo Hill,Alpharetta,Georgia,66466
563,Molli Maliphant,9 Sugar Trail,Dallas,Texas,89895
564,Onida Gasson,070 Roxbury Circle,Las Vegas,Nevada,93770
565,Nina Lippatt,2 Hovde Plaza,Boulder,Colorado,72795
566,Mariska Dybald,520 South Road,Milwaukee,Wisconsin,84042
567,Correna Mattimoe,9 Goodland Parkway,Nashville,Tennessee,83773
568,Carolin de Tocqueville,96 Hanover Center,Hollywood,Florida,93916
569,Fenelia Debenham,92824 Veith Drive,Salt Lake City,Utah,16379
570,Corbie Edmett,11663 Red Cloud Center,Wichita,Kansas,82250
571,Hesther Sterman,327 Glacier Hill Crossing,Baton Rouge,Louisiana,59532
572,Isaiah Corn,24229 Killdeer Court,Jackson,Mississippi,55862
573,Bruce Macilhench,393 Park Meadow Way,Topeka,Kansas,26679
574,Freemon Yakobowitz,2966 Ludington Pass,Austin,Texas,37403
575,Claiborne Bourthoumieux,37392 Brickson Park Road,Odessa,Texas,90662
576,Jolene Wistance,02 Sunfield Court,Aurora,Colorado,26801
577,Joleen Olenikov,936 Nova Point,Lincoln,Nebraska,80769
578,Novelia Greville,52 Fairview Avenue,Shreveport,Louisiana,52923
579,Wilie de Almeida,58 Schurz Trail,Harrisburg,Pennsylvania,31953
580,Cullen Hintze,33403 Cody Junction,Fayetteville,North Carolina,47990
581,Rozelle Carling,30 Sycamore Court,Paterson,New Jersey,92171
582,Margy Diament,7 Iowa Terrace,Modesto,California,92988
583,Deidre Pidgen,519 Golf Circle,Fresno,California,14513
584,Dennet Cormack,18 Carberry Pass,Cambridge,Massachusetts,91715
585,Belita Hablet,5629 Loomis Circle,San Diego,California,46048
586,Brigitta Douris,1 Iowa Lane,Canton,Ohio,74454
587,Dela Crunden,8 Vidon Crossing,Terre Haute,Indiana,35889
588,Lorianne Crutcher,9 Gina Junction,Columbus,Ohio,39702
589,Merridie Dall,13 Acker Pass,Sarasota,Florida,82586
590,Heda Mahedy,64 Sage Park,Evansville,Indiana,69902
591,Claudine Burvill,354 Farwell Point,New Orleans,Louisiana,58439
592,Jimmy Finlator,82273 Buena Vista Trail,Pasadena,California,36582
593,Darnell Antoshin,8 Bayside Drive,Richmond,Virginia,92907
594,Abigale Dymidowicz,17 Homewood Point,Green Bay,Wisconsin,76187
595,Ethelin Leitche,27 Lotheville Point,Shawnee Mission,Kansas,51940
596,Gisele Benns,3 Schlimgen Point,San Diego,California,72657
597,Chen Franzotto,3498 Badeau Avenue,Philadelphia,Pennsylvania,80226
598,Damaris Lowdiane,82 Red Cloud Drive,Rochester,New York,78838
599,Padriac Rijkeseis,32596 Monica Pass,Washington,District of Columbia,25183
600,Valeria Jillett,1 Warbler Junction,Dayton,Ohio,80169
601,Mikey Aleksankin,70323 South Road,Palatine,Illinois,81854
602,Izaak Doran,4 Graceland Circle,Temple,Texas,74321
603,Margarethe Roubert,2 Mayer Circle,Seattle,Washington,81208
604,Arden Battman,5484 Vermont Road,Saint Louis,Missouri,85147
605,Constantine Grattage,8918 Browning Junction,Kalamazoo,Michigan,17518
606,Uriah Tasseler,14 Park Meadow Place,Denver,Colorado,89642
607,Waylon Semaine,9020 Northridge Road,Newark,New Jersey,19978
608,Morly Pryde,841 Superior Parkway,Savannah,Georgia,91741
609,Jaine Kidwell,290 Mesta Alley,Chesapeake,Virginia,14342
610,Grantham Boother,3879 Aberg Junction,Boca Raton,Florida,31191
611,Norene Rickersy,89 Anniversary Junction,Houston,Texas,82779
612,Florina MacGaffey,0 Oak Valley Drive,Tucson,Arizona,54840
613,Washington Tordoff,4 Service Hill,Schenectady,New York,37460
614,Sibley McQuie,549 Bunting Avenue,Young America,Minnesota,46227
615,Francisca Sunley,2 Troy Drive,South Bend,Indiana,83814
616,Aila Tregunnah,4 Bashford Drive,San Antonio,Texas,46762
617,Maitilde Sherr,0005 Everett Center,Washington,District of Columbia,57138
618,Christoforo Fenby,0 Grasskamp Avenue,Milwaukee,Wisconsin,16624
619,Bail Scorthorne,68626 Di Loreto Pass,San Francisco,California,52866
620,Hymie Knight,078 Forest Run Point,Topeka,Kansas,73830
621,Alic Paddington,96483 Knutson Place,Los Angeles,California,60156
622,Martita Warmington,8 Superior Court,Des Moines,Iowa,32425
623,Eadmund Semkins,86014 Ohio Parkway,Louisville,Kentucky,61307
624,Paulina Turnpenny,029 Arizona Drive,Chicago,Illinois,23818
625,Fairlie Craster,56 Kipling Parkway,Humble,Texas,78943
626,Drucill Hutable,5292 Schiller Street,Saint Louis,Missouri,62321
627,Melitta Bellham,73 Old Gate Way,Charlotte,North Carolina,66724
628,Marcia McMennum,565 Westerfield Drive,Columbia,South Carolina,75151
629,Howard Gravie,05050 Mariners Cove Terrace,Idaho Falls,Idaho,84165
630,Valli Greenman,7668 Loftsgordon Park,Greenville,South Carolina,21131
631,Parke Spadoni,256 Brickson Park Terrace,Trenton,New Jersey,92994
632,Nonnah Edling,7 Karstens Hill,Las Vegas,Nevada,39778
633,Clarice Nolton,4128 Cardinal Place,El Paso,Texas,86826
634,Brinna Hinchshaw,79 Riverside Drive,Oklahoma City,Oklahoma,20063
635,Sunny Waddington,428 Truax Parkway,Bronx,New York,93768
636,Emmott Giacomucci,60063 Bultman Way,Palmdale,California,75487
637,Abdul Danielut,73009 Hoepker Road,West Hartford,Connecticut,38371
638,Karry Wingar,729 Farragut Way,Albany,New York,30785
639,Fawne Longrigg,59928 Hoffman Trail,Anchorage,Alaska,21332
640,Ravi St. Aubyn,2577 Morning Alley,Mesa,Arizona,87324
641,Johnny Pol,277 Mandrake Street,Baton Rouge,Louisiana,29596
642,Linnea O'Hagan,9046 Forster Circle,Chicago,Illinois,97310
643,Angy Kelberer,321 Alpine Terrace,Naples,Florida,32076
644,Avis Behnen,37493 Thompson Street,El Paso,Texas,64222
645,Ricky Smallshaw,1 Towne Trail,Augusta,Georgia,74258
646,Coralie Stoneham,552 Corry Alley,Youngstown,Ohio,35555
647,Imelda Gue,39 Petterle Terrace,Minneapolis,Minnesota,96673
648,Astra Jovey,85 Pierstorff Place,Humble,Texas,98555
649,Jamesy Veldstra,2104 Prairieview Plaza,Spokane,Washington,28009
650,Casie Blakely,6 Crownhardt Crossing,Philadelphia,Pennsylvania,90628
651,Jocelin Hasel,0524 Anthes Court,Topeka,Kansas,40280
652,Shirleen Veldman,9023 Eagan Plaza,Houston,Texas,23731
653,Ciro Spadelli,049 Northfield Park,Atlanta,Georgia,20779
654,Teresina Dicker,48697 Dapin Court,Saint Louis,Missouri,58275
655,Wake Elmhirst,52261 Del Sol Parkway,Fullerton,California,72515
656,Livvie Polendine,01 Donald Way,Oklahoma City,Oklahoma,53402
657,Gunar Steeden,946 Nobel Street,Miami,Florida,70700
658,Humbert Pearce,1747 Ruskin Plaza,Dallas,Texas,66325
659,Wilma Yockley,0 Bellgrove Park,Oklahoma City,Oklahoma,50675
660,Germayne Farbrother,90314 Lukken Drive,Wichita,Kansas,32320
661,Veda New,906 Dixon Center,San Antonio,Texas,56485
662,Rafi Thomann,298 Del Sol Road,Houston,Texas,31157
663,Jourdan Barnewille,75607 Rockefeller Way,Palatine,Illinois,76816
664,Stu Verrechia,7222 Waxwing Junction,Los Angeles,California,21876
665,Amy Huggett,5 Harper Court,El Paso,Texas,10437
666,Corri Vanacci,3073 Northfield Alley,Grand Rapids,Michigan,31081
667,Zondra Standell,46978 6th Crossing,Garland,Texas,16389
668,Gustaf Rivard,610 Muir Place,Seattle,Washington,90834
669,Lanny Barley,8 Lyons Way,Sandy,Utah,82845
670,Ogdan Mussilli,989 Menomonie Pass,Huntsville,Alabama,10810
671,Clarinda Isenor,0 Gale Drive,Birmingham,Alabama,89214
672,Pietro Biagini,694 Algoma Road,Amarillo,Texas,56127
673,Kaiser Easby,47 Melvin Crossing,Orange,California,12293
674,Abel Hounson,81 Cambridge Parkway,Charleston,West Virginia,42744
675,Guthrey Sawday,4 Westerfield Drive,Dayton,Ohio,61515
676,Tremaine Razoux,9 Comanche Park,Greenville,South Carolina,11533
677,Kippy Touzey,9 Kropf Place,Columbus,Ohio,60406
678,Godfrey Mohan,1940 Arizona Alley,El Paso,Texas,75128
679,Neville Maddern,3 Mayfield Crossing,Albuquerque,New Mexico,50691
680,Carrie Sobczak,6 Scoville Plaza,Amarillo,Texas,17693
681,Alisun Wheatley,79822 Meadow Vale Place,Raleigh,North Carolina,62911
682,Moe Storks,7114 Golf View Alley,Largo,Florida,65919
683,Audrye McDill,534 Dixon Place,Washington,District of Columbia,94136
684,Letitia Cissen,685 Maple Wood Court,Miami,Florida,47531
685,Anna-diane Stickley,9 Farmco Hill,Boston,Massachusetts,27148
686,Dannie Verbruggen,4 East Terrace,San Antonio,Texas,26332
687,Clevie Prestland,193 Heath Plaza,New Bedford,Massachusetts,61542
688,Alexio Antyshev,970 Ridge Oak Alley,Baltimore,Maryland,38732
689,Vasili Gabey,13703 Stone Corner Road,Harrisburg,Pennsylvania,69494
690,Lauren Gieraths,55843 Tennessee Avenue,Warren,Michigan,13488
691,Collie Dyke,08629 Tony Circle,Tucson,Arizona,31991
692,Adria Giraths,414 Myrtle Pass,Phoenix,Arizona,45514
693,Andreas Pinwell,0741 Ronald Regan Lane,Pittsburgh,Pennsylvania,44496
694,Ivar Farden,2348 Delladonna Hill,Tampa,Florida,17690
695,Silvie Klausen,22506 Parkside Road,Fairbanks,Alaska,69440
696,Elena Stebbins,48759 Atwood Crossing,Duluth,Minnesota,88086
697,Erin Fliege,45464 Laurel Lane,San Jose,California,87821
698,Marsha Hubbis,24 Clemons Drive,Salt Lake City,Utah,11258
699,Lara Size,05893 Shasta Street,Huntsville,Texas,31482
700,Gertie Crowcroft,151 Susan Road,Birmingham,Alabama,10387
701,Rockwell Suttling,987 Milwaukee Circle,Mountain View,California,43835
702,Tymothy Hedin,01 Esker Place,El Paso,Texas,88596
703,Clyde Blennerhassett,95904 Browning Junction,Columbus,Georgia,71431
704,Cherilynn Baudy,11 Ryan Trail,Beaverton,Oregon,33166
705,Sargent Balentyne,5 Barnett Parkway,Fairbanks,Alaska,76492
706,Ardelis Jeannaud,483 Autumn Leaf Avenue,Sacramento,California,66344
707,Melinda Burlay,693 Rusk Hill,Springfield,Illinois,98244
708,Gunner Reese,184 Caliangt Pass,Oklahoma City,Oklahoma,77736
709,Bay Corbridge,53636 High Crossing Way,Athens,Georgia,23672
710,Juan Garthshore,0863 Montana Point,Boulder,Colorado,69867
711,Madelle Gavozzi,605 Longview Trail,Columbus,Ohio,84851
712,Nahum Spurnier,21444 Kim Terrace,Elmira,New York,95612
713,Rosmunda Castro,1801 Crest Line Avenue,Helena,Montana,64441
714,Martie Hubeaux,261 Stuart Place,Glendale,Arizona,19607
715,Moises Sheara,90 Mandrake Lane,Carson City,Nevada,50371
716,Derick Laybourne,58 Hansons Road,Lexington,Kentucky,64134
717,Dorelia Nathon,8655 Arapahoe Hill,Dallas,Texas,29626
718,Hill Lebond,5 1st Terrace,Pittsburgh,Pennsylvania,34260
719,Palmer Stoffels,51 Vera Center,Fairfax,Virginia,23153
720,Marchelle Le Jean,03621 Hagan Lane,Burbank,California,81935
721,Janaya Whanstall,9 Eagle Crest Plaza,Orlando,Florida,78670
722,Nevsa Crothers,143 Kim Pass,Houston,Texas,95924
723,Cecily Ludwikiewicz,15544 Grover Center,San Jose,California,92363
724,Kaitlyn Maeer,265 Del Sol Trail,Birmingham,Alabama,21750
725,Mortie Wardley,263 Heffernan Crossing,Wilmington,Delaware,73749
726,Garold Linnock,1 Corben Trail,Birmingham,Alabama,21130
727,Cart Couves,9 Thierer Drive,Boise,Idaho,49692
728,Prince Bird,313 Morningstar Place,New York City,New York,11100
729,Brendin De Bruin,3 Bunker Hill Circle,Charleston,West Virginia,17578
730,Hurley Bastistini,076 Vahlen Trail,Louisville,Kentucky,68667
731,Pepillo Teggin,4267 Roxbury Street,Sarasota,Florida,51296
732,Jackie Trobridge,6 Ramsey Center,Orlando,Florida,74564
733,Ricky Hesse,3658 Fisk Circle,West Palm Beach,Florida,97367
734,Abigael Roggero,98757 Oxford Plaza,Columbus,Ohio,24413
735,Ninetta Le Sieur,45926 Mayfield Junction,Pensacola,Florida,68315
736,Ted Crutchley,513 Johnson Alley,Springfield,Illinois,68902
737,Beverly Tuohy,5116 Hoard Plaza,Macon,Georgia,61184
738,Douglas Annable,5 Messerschmidt Plaza,West Palm Beach,Florida,24181
739,Noble Trowbridge,8655 Surrey Place,Fort Lauderdale,Florida,15691
740,Georgine Woodage,44323 Laurel Street,North Las Vegas,Nevada,98896
741,Darren Lathwood,1721 6th Road,Alexandria,Virginia,53991
742,Carolus Dudny,40260 Marcy Drive,Saint Paul,Minnesota,96462
743,Toinette Skaife d'Ingerthorpe,81 Swallow Road,Des Moines,Iowa,92776
744,Edgar Verbeke,84 Summerview Point,Lynchburg,Virginia,65320
745,Lyndsie Attiwill,60167 Old Gate Road,Terre Haute,Indiana,77113
746,Fitzgerald Giacobini,9795 Cascade Road,Houston,Texas,17132
747,Emmy Isard,54 Prentice Parkway,Houston,Texas,80027
748,Dionysus Chasemore,74 Haas Avenue,Colorado Springs,Colorado,67956
749,Terrence Sandyford,6 Clarendon Crossing,Daytona Beach,Florida,10628
750,Emmy Chiese,80 Clyde Gallagher Court,Daytona Beach,Florida,61436
751,Wynne Jorissen,14 Mccormick Point,Houston,Texas,27200
752,Westbrook Goodricke,3 Forster Hill,Bryan,Texas,42380
753,Natassia Gentner,8609 Carioca Avenue,Los Angeles,California,71177
754,Max Rizzelli,6 Claremont Center,Visalia,California,85322
755,Marney Baudassi,6 Monument Parkway,South Bend,Indiana,72941
756,Rubin Timlin,153 Pawling Terrace,Young America,Minnesota,95180
757,Rosamond Spenton,3 Surrey Plaza,Birmingham,Alabama,64184
758,Perl Adamek,2449 Pierstorff Park,Austin,Texas,66623
759,Dorette Harbor,6169 Oneill Street,Las Vegas,Nevada,69223
760,Davy Betjeman,05 Main Road,Elizabeth,New Jersey,75457
761,Gamaliel Basnall,46 Parkside Park,Lubbock,Texas,66603
762,Beitris L' Anglois,308 Jenna Terrace,Toledo,Ohio,70661
763,Suki Codman,0 Tomscot Terrace,Salt Lake City,Utah,11837
764,Belva McPherson,56889 Talmadge Center,Cleveland,Ohio,18516
765,Stacy Mayberry,046 Mitchell Hill,Fort Worth,Texas,74826
766,Ashton Petrelli,6004 Quincy Parkway,Indianapolis,Indiana,78378
767,Timmie Rama,6 Lerdahl Way,Santa Ana,California,56207
768,Josie Parkman,413 Algoma Crossing,Dallas,Texas,76212
769,Vick Kimmings,39620 Moland Park,Gainesville,Florida,17759
770,Addi Seamons,3 Crescent Oaks Street,Port Washington,New York,35633
771,Mia Mongan,40574 Northridge Park,Jacksonville,Florida,37437
772,Mirella Cardno,30 Lakeland Parkway,Pittsburgh,Pennsylvania,53917
773,Lorry Scott,2765 Nevada Court,Charleston,West Virginia,38811
774,Jervis Surmeyer,35035 Lake View Avenue,Reston,Virginia,28094
775,Tybi Macieiczyk,1189 Green Ridge Center,Englewood,Colorado,57758
776,Christean Mowson,06 Columbus Hill,Palo Alto,California,79101
777,Dorotea Pitbladdo,6308 Judy Drive,Boise,Idaho,33954
778,Adria Eschalette,15 Loeprich Park,New York City,New York,85921
779,Herbie De Minico,38 Clemons Center,Phoenix,Arizona,88991
780,Ronda Shevelin,06 Carpenter Road,Philadelphia,Pennsylvania,19423
781,Harmonia Hallatt,320 Little Fleur Trail,Lexington,Kentucky,81560
782,Elberta Presland,4694 Briar Crest Point,Lakeland,Florida,76536
783,Michael Dallinder,93305 Barnett Trail,Roanoke,Virginia,79374
784,Myrna Chess,90 Westridge Plaza,Baltimore,Maryland,97551
785,Lion Nevins,6231 Hazelcrest Street,El Paso,Texas,38174
786,Maddalena Nudde,3001 Saint Paul Road,Orlando,Florida,11194
787,Bord Keam,81781 Northridge Trail,Los Angeles,California,31988
788,Emory Duggan,32 New Castle Junction,Birmingham,Alabama,69326
789,Bonny Goodchild,55816 Drewry Pass,Sacramento,California,24451
790,Ario Breukelman,4 Spenser Place,Portland,Oregon,46376
791,Trix McCarrison,14 Buhler Park,Charlottesville,Virginia,73926
792,Giles Bernard,7 Helena Park,Orlando,Florida,24468
793,Cassey Spadoni,911 Emmet Road,Kansas City,Missouri,60319
794,Krysta Borris,9180 Brentwood Drive,Canton,Ohio,57315
795,Florance Sheward,827 Di Loreto Point,Washington,District of Columbia,78759
796,Arleyne Talby,37176 Katie Pass,Dallas,Texas,15824
797,Livvie Puzey,4 Claremont Lane,Whittier,California,64106
798,Brendan Lobbe,81 Union Pass,London,Kentucky,41481
799,Kipper Hedgecock,8208 Reinke Alley,Terre Haute,Indiana,92360
800,Lorne Byne,0845 Hollow Ridge Court,Whittier,California,92238
801,Alonso Joe,005 Superior Park,Gulfport,Mississippi,49012
802,Willetta Langdale,5 Lawn Junction,Paterson,New Jersey,43306
803,Alanson Pinare,79 Thompson Point,San Antonio,Texas,58370
804,Cathrin Hixson,684 Del Mar Circle,Longview,Texas,46367
805,Baldwin Sollars,56686 Petterle Drive,Denver,Colorado,70082
806,Forster Barnish,25 Portage Pass,Newark,Delaware,56635
807,Natka Bruntjen,36 Moland Lane,San Diego,California,78228
808,Trudy Plaskitt,411 Maywood Road,Helena,Montana,72919
809,Heloise Winskill,8 Canary Crossing,Charlottesville,Virginia,91246
810,Ernst Walworche,68620 Hansons Park,Billings,Montana,57833
811,Kathi Brandom,53234 Main Center,Topeka,Kansas,16213
812,Ado Oger,996 Dryden Park,Kansas City,Missouri,78129
813,Davidson Sedcole,1 Muir Crossing,Anderson,South Carolina,97269
814,Edgar Leppo,0348 Gale Terrace,New Orleans,Louisiana,70458
815,Amelita Woodard,9 Stoughton Point,San Luis Obispo,California,97759
816,Gusty Hodges,55 Golf Place,Cincinnati,Ohio,80746
817,Siobhan Bassindale,92 East Terrace,Colorado Springs,Colorado,28229
818,Blithe Tobias,53698 Sullivan Drive,Long Beach,California,12949
819,Cassaundra De Hailes,0 Anhalt Avenue,Wichita,Kansas,31853
820,Neel Viscovi,262 Hovde Point,San Angelo,Texas,50685
821,Simon Tenman,01 Burning Wood Place,Memphis,Tennessee,32655
822,Elbertina Chitter,5387 Bultman Terrace,Johnstown,Pennsylvania,21871
823,Deloris Kennham,2995 Maryland Hill,Whittier,California,33546
824,Brok Langstone,26054 Dapin Hill,Milwaukee,Wisconsin,79573
825,Lilias Novichenko,17 Kingsford Terrace,Lubbock,Texas,30160
826,Ringo Bronger,775 6th Junction,Tucson,Arizona,33463
827,Kathryne Kiessel,734 Acker Terrace,Vero Beach,Florida,70297
828,Brandie Elwood,9 Graedel Hill,Dallas,Texas,74620
829,Adina Blunn,345 Main Avenue,Washington,District of Columbia,63937
830,Kathie Widdowes,1464 Ilene Parkway,Charleston,West Virginia,47865
831,Rafaela MacNamee,68766 Rutledge Road,Miami,Florida,38526
832,Neile Pudding,2 Sullivan Street,Bakersfield,California,86351
833,Nye Roy,4591 Pearson Center,Topeka,Kansas,91119
834,Erv Murcott,9 Bashford Court,Rochester,New York,41538
835,Miran Avramovic,07148 Bellgrove Way,Honolulu,Hawaii,66171
836,Frederic Keemer,11 Onsgard Road,Silver Spring,Maryland,59969
837,Casey Brehault,3 Packers Hill,Fort Lauderdale,Florida,35007
838,Kacie Preskett,015 Derek Pass,Dallas,Texas,11059
839,Adaline Barniss,75836 South Parkway,Saint Paul,Minnesota,18824
840,Ira Guiness,63 Talisman Street,Oklahoma City,Oklahoma,98637
841,Aristotle Hickisson,6 Gerald Parkway,Pueblo,Colorado,84240
842,Sheree Raddin,82 Burrows Road,Aurora,Colorado,97569
843,Frederik Plastow,86049 Lotheville Crossing,San Francisco,California,88160
844,Malina Penella,9 Farmco Point,Charleston,West Virginia,88288
845,Hadleigh Selley,67427 Sunfield Way,Columbia,South Carolina,26594
846,Adara Jandourek,57102 Westerfield Plaza,Hollywood,Florida,88467
847,Jennee Sowray,531 Katie Crossing,Bronx,New York,15199
848,Vic Huyche,41 Comanche Park,San Mateo,California,63760
849,Erek McGenn,1 Mitchell Court,North Little Rock,Arkansas,10050
850,Crista Houlahan,9 Upham Court,Trenton,New Jersey,25579
851,Darb Bocken,1 Southridge Parkway,San Jose,California,96354
852,Jordanna Steggals,8 Pepper Wood Crossing,El Paso,Texas,42108
853,Aguste Swaton,9467 Shelley Terrace,Orlando,Florida,60994
854,Jessee Berrisford,8 Hollow Ridge Park,Wilkes Barre,Pennsylvania,73474
855,Averyl De Blasio,776 Darwin Junction,Peoria,Illinois,89648
856,Caria Hefforde,56 Lillian Junction,West Palm Beach,Florida,32558
857,Filberte Whyler,50 Glendale Circle,Dallas,Texas,40046
858,Anica Liddicoat,7 Dawn Pass,Oakland,California,55078
859,Ilene Hopewell,4 Derek Junction,Abilene,Texas,45701
860,Livvy Burkill,039 Crescent Oaks Way,Fort Worth,Texas,11454
861,Archy Vennard,38558 Bluejay Junction,Norfolk,Virginia,57715
862,Alvina Minto,60518 Redwing Park,Houston,Texas,45900
863,Flss Carding,805 Melody Court,Omaha,Nebraska,22152
864,Shanon Metterick,4587 Iowa Road,Miami,Florida,59796
865,Guthry Crisall,23699 Manufacturers Lane,Ogden,Utah,96875
866,Florentia Wudeland,290 Towne Hill,Las Vegas,Nevada,15656
867,Sandi Crudgington,8570 Lakeland Crossing,Santa Monica,California,77520
868,Eveleen Drohane,6 Waywood Center,Lubbock,Texas,28528
869,Dorey Armin,40 Rutledge Drive,Young America,Minnesota,80796
870,Tomaso Brecknock,16 Elmside Plaza,Nashville,Tennessee,61456
871,Hart Catcherside,221 Elmside Point,Winston Salem,North Carolina,58233
872,Emilia Lodo,76590 Macpherson Park,Albany,New York,76612
873,Kissee Eskriett,56448 Warrior Park,Miami,Florida,86504
874,Irma Fleckno,41433 Spenser Road,Peoria,Illinois,14797
875,Jo Minchinton,38 Portage Place,Fort Pierce,Florida,73281
876,Brion Hillett,21 Duke Place,Providence,Rhode Island,66265
877,Fedora Gennerich,8707 Portage Alley,Bloomington,Indiana,44462
878,Gerianne Ince,9843 Brentwood Center,Ocala,Florida,63324
879,Melodie Easum,2 Grasskamp Terrace,Huntington,West Virginia,19037
880,Janek Maunder,7429 Ridgeview Way,Odessa,Texas,28116
881,Leonard Wasylkiewicz,49 Westport Court,Norcross,Georgia,91723
882,Davidson Arnli,86 Namekagon Crossing,Springfield,Illinois,58039
883,Regan Maystone,29 Blackbird Place,Shawnee Mission,Kansas,52800
884,Avigdor Wards,9 Melvin Parkway,Baltimore,Maryland,92894
885,Dennie Badsworth,3 Barnett Lane,Rockford,Illinois,93584
886,Di Dowtry,4615 Forest Circle,Tucson,Arizona,53723
887,Nealson Goodrum,8 Novick Place,Minneapolis,Minnesota,16322
888,Lane Nuzzti,39554 Waxwing Trail,Greenville,South Carolina,10273
889,Rik Tineman,83359 Pond Point,Tacoma,Washington,47310
890,Jo-ann Duddy,5 Pleasure Way,Evanston,Illinois,22416
891,Corette Denny,8 Schiller Center,Kansas City,Missouri,60115
892,Dion Fehner,9 Elgar Circle,Plano,Texas,13031
893,Gretta Boni,1 Lawn Road,Alexandria,Virginia,54306
894,Cleavland Guild,466 Sunbrook Lane,Kansas City,Kansas,58568
895,Genna Cronin,1048 Hoepker Trail,Houston,Texas,76200
896,Madelina Begg,92 Talisman Lane,Sacramento,California,45869
897,Sybilla Beausang,16713 Jenifer Way,Terre Haute,Indiana,76404
898,Sybille Cansdell,60 Johnson Junction,Monticello,Minnesota,31459
899,Simonne Roubay,0411 Tomscot Junction,Metairie,Louisiana,31120
900,Wilden Jardein,22363 Lakewood Gardens Trail,Hialeah,Florida,46582
901,Inga Jimes,03 Canary Park,Troy,Michigan,59442
902,Glynn Jordine,59578 Evergreen Crossing,San Diego,California,53258
903,Dorelle Uttermare,24331 Chinook Road,Tuscaloosa,Alabama,81511
904,Dale McJerrow,87 Elmside Avenue,Arvada,Colorado,19158
905,Merry Raft,53631 Wayridge Plaza,Peoria,Illinois,69846
906,Zeb Glanton,71269 Kedzie Circle,Tampa,Florida,50268
907,Jocelyne Allbut,69912 Fordem Trail,Atlanta,Georgia,51295
908,Holli Sumshon,983 Porter Avenue,Norwalk,Connecticut,88352
909,Fanechka Schleswig-Holstein,776 Melody Crossing,Memphis,Tennessee,79080
910,Luca Marikhin,38253 Carberry Alley,Alpharetta,Georgia,25371
911,Tynan Flemming,5898 Victoria Center,Richmond,Virginia,24026
912,Valdemar Lacroutz,604 Arizona Pass,Lancaster,Pennsylvania,20270
913,Vince Whymark,390 Debs Hill,Davenport,Iowa,25319
914,Etti Bycraft,64625 Crownhardt Parkway,Little Rock,Arkansas,15220
915,Gabriel Caulwell,0 7th Park,Atlanta,Georgia,69947
916,Nollie Howett,01835 Londonderry Place,El Paso,Texas,19402
917,Jaquenette Corain,280 Tennyson Park,Fort Wayne,Indiana,37150
918,Abigale Ruger,08626 Meadow Vale Alley,Jamaica,New York,22545
919,Douglas Jackett,03 Cody Road,Durham,North Carolina,19279
920,Angelo Nissle,6 Bonner Junction,Memphis,Tennessee,18226
921,Tod Allward,58333 Larry Alley,Glendale,California,79036
922,Aileen Houldin,676 Morrow Road,Oklahoma City,Oklahoma,37566
923,Bernardina Djurkovic,755 Cambridge Way,Memphis,Tennessee,15538
924,Lynda Clemintoni,11415 David Drive,Baton Rouge,Louisiana,43005
925,Lois Verney,5 Dottie Road,Tulsa,Oklahoma,68632
926,Arv Joynson,7896 Heffernan Center,Albuquerque,New Mexico,88612
927,Jobye Jenkison,12409 Crest Line Alley,Saint Louis,Missouri,76650
928,Guido Strauss,3685 Harbort Crossing,Hot Springs National Park,Arkansas,40745
929,Vilma Gaspar,30787 Shasta Place,San Mateo,California,70418
930,Babbette Lambard,06 1st Way,Houston,Texas,93954
931,Adelaide Hulland,85174 Anthes Road,Savannah,Georgia,72453
932,Lorelei Degnen,4 Mitchell Park,Jacksonville,Florida,68674
933,Joy Keyworth,81447 Rieder Avenue,Santa Ana,California,81017
934,Cherlyn Frowde,64671 Bultman Junction,Phoenix,Arizona,17958
935,Danny Kinavan,727 High Crossing Trail,Saint Louis,Missouri,82471
936,Baird Rilton,6 Banding Street,Miami,Florida,48491
937,Phylys Stook,38 Mayfield Road,Santa Barbara,California,40334
938,Gillan Touhig,2 Columbus Hill,New York City,New York,33886
939,Dosi Sadry,4 Karstens Park,Montgomery,Alabama,45153
940,Kathy Wrotchford,65 Fallview Avenue,Cedar Rapids,Iowa,14163
941,Eugenia Hallas,7821 Jackson Road,Springfield,Illinois,35874
942,Shirlee Tuffley,06 Redwing Way,Fort Worth,Texas,16029
943,Marty Pinock,9 East Trail,Mobile,Alabama,79935
944,Susi Fidilis,3 Charing Cross Crossing,Detroit,Michigan,13635
945,Gaile felip,47145 Daystar Center,San Diego,California,87880
946,Benedict Braznell,16 Dixon Junction,El Paso,Texas,50846
947,Zacharias Begin,828 Hazelcrest Park,Phoenix,Arizona,98072
948,Devland McGinney,8926 Morning Circle,Atlanta,Georgia,53683
949,Rice Qualtro,21746 Butternut Circle,Alpharetta,Georgia,54817
950,Jerald Dencs,66384 Scott Pass,Chicago,Illinois,51906
951,Jobyna Mallya,78066 Lyons Pass,Cincinnati,Ohio,73456
952,Jayne Gisburn,35213 Grasskamp Plaza,Maple Plain,Minnesota,86486
953,Arlen Teggart,5 Morningstar Crossing,Peoria,Illinois,78460
954,Lari Szymaniak,49696 Center Place,Salt Lake City,Utah,12066
955,Simona Finlry,67930 Lerdahl Center,Springfield,Illinois,74641
956,Denney Dobrowlski,9487 Anniversary Place,Chicago,Illinois,91458
957,Olly Durling,69 Golf Court,Chicago,Illinois,21637
958,Odessa Bonick,9 Hauk Way,Chicago,Illinois,63800
959,Heidie Ketteridge,3 Pearson Hill,Bronx,New York,52818
960,Ivan Baldung,1 Graceland Hill,Seattle,Washington,23506
961,Tera Ingman,2 Lighthouse Bay Plaza,Albany,New York,63452
962,Giacinta Trembey,0865 Meadow Ridge Hill,Young America,Minnesota,51678
963,Sindee Pinke,98 Center Hill,El Paso,Texas,98009
964,Alverta Geator,4981 Waubesa Lane,Minneapolis,Minnesota,22527
965,Elias Mollindinia,6963 Hintze Place,Tulsa,Oklahoma,94424
966,Klarrisa Inglis,72 Welch Alley,Muncie,Indiana,51921
967,Loralie De Roos,16 Red Cloud Junction,Baton Rouge,Louisiana,27685
968,Derk Docksey,49 Green Junction,Dallas,Texas,55244
969,Elene Dowears,6259 Norway Maple Junction,Oakland,California,15468
970,Reine Epsley,2 Dexter Place,Naples,Florida,60741
971,Gunter Drioli,5 Steensland Crossing,Arlington,Texas,20551
972,Herold Aloshechkin,9 Portage Avenue,San Jose,California,41460
973,Ingelbert Lippiatt,68 Columbus Hill,Idaho Falls,Idaho,61312
974,Linda Kayser,55 Lakewood Gardens Drive,Houston,Texas,73319
975,Tedra Stitch,3874 Dakota Plaza,San Rafael,California,75367
976,Stormie Abramin,45133 Dottie Park,Irvine,California,63411
977,Gal Tison,48 Porter Alley,Bronx,New York,10030
978,Tommy Scrannage,97252 Amoth Point,Kansas City,Missouri,41772
979,Devin Pregal,8480 Reindahl Circle,Charlotte,North Carolina,30535
980,Noami Lampke,9424 Larry Road,Washington,District of Columbia,69322
981,Andree Brinklow,57864 Debra Court,El Paso,Texas,23694
982,Marrilee Pedrollo,8714 Tennessee Plaza,Abilene,Texas,97675
983,Fanchette Saunt,18736 Mifflin Center,Nashville,Tennessee,28722
984,Pierette Dumpleton,5 Morning Road,Alexandria,Virginia,59159
985,Wilhelmina Cramp,1 Prairie Rose Road,Pittsburgh,Pennsylvania,64695
986,Andra Sall,5 Westport Road,Zephyrhills,Florida,82294
987,Jennine Quiddihy,1 Susan Center,Springfield,Massachusetts,30554
988,Ardys Allanby,191 Onsgard Pass,Naples,Florida,53819
989,Cello Asch,690 David Terrace,Jamaica,New York,41430
990,Abbe Smout,0 Hudson Lane,Punta Gorda,Florida,28816
991,Cristi Legan,83 Fair Oaks Pass,Gainesville,Florida,80582
992,Betteanne Blanking,7 Melrose Plaza,West Hartford,Connecticut,59423
993,Euell Fripps,7 Valley Edge Trail,Orlando,Florida,69737
994,Far Liccardi,087 Westport Alley,Norfolk,Virginia,51658
995,Shep Velde,6 Daystar Street,Las Cruces,New Mexico,46765
996,Madelle Penton,15 7th Avenue,Oklahoma City,Oklahoma,68807
997,Denys Balding,22270 Jana Point,Columbia,South Carolina,75075
998,Nichole Wellbank,1485 Farwell Point,Youngstown,Ohio,15868
999,Grata Gerty,08 Stuart Trail,Indianapolis,Indiana,45841
1000,Wes Wilfling,00573 Thackeray Drive,Brooklyn,New York,35373
